OBJECT_NAME,OBJECT_ID,EPOCH,MEAN_MOTION,ECCENTRICITY,INCLINATION,RA_OF_ASC_NODE,ARG_OF_PERICENTER,MEAN_ANOMALY,EPHEMERIS_TYPE,CLASSIFICATION_TYPE,NORAD_CAT_ID,ELEMENT_SET_NO,REV_AT_EPOCH,BSTAR,MEAN_MOTION_DOT,MEAN_MOTION_DDOT
SHARJAHSAT-1,2023-001CZ,2026-07-16T14:57:03.714624,15.50151757,.00046515,97.3147,266.8179,16.4936,343.6466,0,U,55104,999,19705,.20638306E-3,.11539E-3,0
HORUS 1,2023-025A,2026-07-16T15:28:58.464768,15.23546796,.00029481,97.3453,271.6205,111.1532,249.0020,0,U,55690,999,18853,.12253708E-3,.2858E-4,0
HORUS 2,2023-032A,2026-07-16T14:45:50.088384,15.23352512,.00011871,97.3525,272.4237,136.1586,223.9746,0,U,55844,999,18596,.12156361E-3,.2818E-4,0
GLOBAL-19,2023-041B,2026-07-15T22:11:17.054880,15.38694225,.0009785,42.0023,34.2193,222.9817,137.0259,0,U,55982,999,18635,.20145E-3,.7625E-4,0
ION SCV-010,2023-054Q,2026-07-16T06:26:22.972416,15.26429867,.00146253,97.3739,86.3974,100.9527,259.3358,0,U,56192,999,18063,.96341208E-4,.2443E-4,0
TELEOS-2,2023-057C,2026-07-16T14:46:55.196832,14.96371989,.00007792,9.9895,349.9077,283.1804,76.8323,0,U,56310,999,17721,-.25889684E-3,-.2323E-4,0
SNIPE 4,2023-072B,2026-07-16T14:14:13.800192,15.43429153,.00048873,97.5221,44.5514,199.7398,160.3661,0,U,56744,999,17464,.27926279E-3,.12404E-3,0
SNIPE 2,2023-072C,2026-07-16T14:40:55.812576,15.48275891,.00033335,97.5212,47.8257,227.4430,132.6539,0,U,56745,999,17479,.32400791E-3,.17016E-3,0
2023-072G,2023-072G,2026-07-16T14:30:19.214784,15.52184986,.00025644,97.4869,46.6574,198.8273,161.2885,0,U,56749,999,17502,.30690703E-3,.18504E-3,0
GEISAT PRECURSOR,2023-084C,2026-07-16T14:55:27.170400,15.35021868,.00045752,97.6261,339.5573,223.9728,136.1151,0,U,56934,999,17204,.12273183E-3,.4085E-4,0
BLACKJACK ACES-3,2023-084U,2026-07-16T14:57:57.096864,15.18796787,.00008276,97.6250,333.0486,215.6631,144.4548,0,U,56950,999,17163,.14240493E-3,.2892E-4,0
BLACKJACK ACES-2,2023-084Z,2026-07-16T15:06:35.467488,15.18745909,.00017097,97.6248,333.1383,137.3269,222.8098,0,U,56955,999,17164,.16158182E-3,.3286E-4,0
BLACKJACK ACES-1,2023-084AA,2026-07-16T14:48:33.158880,15.18750755,.00019163,97.6241,332.8978,117.0391,243.1039,0,U,56956,999,12136,.14319176E-3,.2904E-4,0
ION SCV-011,2023-084AB,2026-07-16T13:57:36.568800,15.29104816,.00059048,98.1377,27.5905,300.0904,59.9749,0,U,56957,999,17030,.10245106E-3,.2806E-4,0
GHOST-3,2023-084AC,2026-07-16T08:59:30.090912,15.48814226,.00068635,97.6249,347.5377,180.9226,179.2013,0,U,56958,999,17253,.19691843E-3,.10496E-3,0
AFR-1,2023-084AJ,2026-07-16T14:57:04.163040,15.28783702,.00093531,97.6312,335.0330,229.2648,130.7779,0,U,56964,999,17172,.91794379E-4,.2491E-4,0
METEOR-M2 3,2023-091A,2026-07-16T14:36:23.750208,14.24049000,.00051398,98.6067,251.9824,87.1126,273.0642,0,U,57166,999,15870,.10998881E-4,-.18E-6,0
UMKA 1 (RS40S),2023-091G,2026-07-16T13:36:56.523168,15.21129782,.0012912,97.5034,256.1549,24.9873,335.1985,0,U,57172,999,16847,.13969123E-3,.3044E-4,0
2023-091H,2023-091H,2026-07-16T13:38:25.077984,15.29233115,.00094323,97.5031,261.0080,20.5452,339.6165,0,U,57173,999,16879,.21764366E-3,.6103E-4,0
2023-091J,2023-091J,2026-07-16T14:22:18.974208,15.14117003,.00143078,97.5041,250.2765,51.7181,308.5335,0,U,57174,999,16808,.10634222E-3,.1875E-4,0
CUBEBEL 2 (EU11S),2023-091K,2026-07-16T14:58:11.473824,15.29843884,.00093872,97.5033,261.1156,21.6758,338.4877,0,U,57175,999,16880,.23509408E-3,.6724E-4,0
SITRO-AIS 5 (KATYS),2023-091L,2026-07-16T13:41:00.604032,15.30082510,.00105009,97.5043,261.7597,7.6028,352.5369,0,U,57176,999,16883,.21935504E-3,.6317E-4,0
ZORKIY-2M 1,2023-091M,2026-07-16T14:49:02.823456,15.21259972,.00132646,97.5073,256.4937,21.5474,338.6317,0,U,57177,999,16847,.14797478E-3,.3242E-4,0
CUBESX-HSE 3 (RS42S),2023-091N,2026-07-16T13:46:47.501760,15.31904666,.00095142,97.5075,263.5449,356.9824,3.1359,0,U,57178,999,16892,.23459489E-3,.7156E-4,0
MONITOR-3 (RS58S),2023-091Q,2026-07-16T14:23:08.624832,15.28388869,.00108398,97.5066,261.2702,4.8327,355.3015,0,U,57180,999,16878,.21240625E-3,.5803E-4,0
MONITOR-4 (RS57S),2023-091S,2026-07-16T13:50:37.461408,15.28475205,.00108351,97.5060,261.2203,5.1212,355.0136,0,U,57182,999,16878,.20837583E-3,.5707E-4,0
MONITOR-2 (RS39S),2023-091U,2026-07-16T15:01:31.647072,15.19161694,.00112388,97.5054,255.7207,19.2596,340.9061,0,U,57184,999,16842,.11941562E-3,.2444E-4,0
SVYATOBOR 1 (RS60S),2023-091X,2026-07-16T14:47:04.820064,15.27076885,.00086073,97.5074,261.6029,359.5025,0.6203,0,U,57187,999,16880,.17779274E-3,.465E-4,0
HORS 1,2023-091Y,2026-07-16T14:23:08.008800,15.27196519,.00080542,97.5051,261.3448,359.9774,0.1463,0,U,57188,999,16880,.18738409E-3,.4923E-4,0
VIZARD-METEO (RS38S),2023-091Z,2026-07-16T14:01:30.245376,15.36900981,.00055362,97.5077,267.6755,333.6471,26.4490,0,U,57189,999,16920,.26178463E-3,.9366E-4,0
