SHARJAHSAT-1            
1 55104U 23001CZ  26197.62295966  .00011539  00000+0  20638-3 0  9991
2 55104  97.3147 266.8179 0004651  16.4936 343.6466 15.50151757197053
HORUS 1                 
1 55690U 23025A   26197.64512112  .00002858  00000+0  12254-3 0  9993
2 55690  97.3453 271.6205 0002948 111.1532 249.0020 15.23546796188538
HORUS 2                 
1 55844U 23032A   26197.61516306  .00002818  00000+0  12156-3 0  9995
2 55844  97.3525 272.4237 0001187 136.1586 223.9746 15.23352512185964
GLOBAL-19               
1 55982U 23041B   26196.92450295  .00007625  00000+0  20145-3 0  9993
2 55982  42.0023  34.2193 0009785 222.9817 137.0259 15.38694225186359
ION SCV-010             
1 56192U 23054Q   26197.26832144  .00002443  00000+0  96341-4 0  9991
2 56192  97.3739  86.3974 0014625 100.9527 259.3358 15.26429867180635
TELEOS-2                
1 56310U 23057C   26197.61591663 -.00002323  00000+0 -25890-3 0  9992
2 56310   9.9895 349.9077 0000779 283.1804  76.8323 14.96371989177219
SNIPE 4                 
1 56744U 23072B   26197.59321528  .00012404  00000+0  27926-3 0  9999
2 56744  97.5221  44.5514 0004887 199.7398 160.3661 15.43429153174642
SNIPE 2                 
1 56745U 23072C   26197.61175709  .00017016  00000+0  32401-3 0  9999
2 56745  97.5212  47.8257 0003333 227.4430 132.6539 15.48275891174799
2023-072G               
1 56749U 23072G   26197.60438906  .00018504  00000+0  30691-3 0  9995
2 56749  97.4869  46.6574 0002564 198.8273 161.2885 15.52184986175028
GEISAT PRECURSOR        
1 56934U 23084C   26197.62184225  .00004085  00000+0  12273-3 0  9993
2 56934  97.6261 339.5573 0004575 223.9728 136.1151 15.35021868172040
BLACKJACK ACES-3        
1 56950U 23084U   26197.62357751  .00002892  00000+0  14240-3 0  9997
2 56950  97.6250 333.0486 0000827 215.6631 144.4548 15.18796787171631
BLACKJACK ACES-2        
1 56955U 23084Z   26197.62957717  .00003286  00000+0  16158-3 0  9998
2 56955  97.6248 333.1383 0001709 137.3269 222.8098 15.18745909171649
BLACKJACK ACES-1        
1 56956U 23084AA  26197.61705045  .00002904  00000+0  14319-3 0  9996
2 56956  97.6241 332.8978 0001916 117.0391 243.1039 15.18750755121360
ION SCV-011             
1 56957U 23084AB  26197.58167325  .00002806  00000+0  10245-3 0  9991
2 56957  98.1377  27.5905 0005904 300.0904  59.9749 15.29104816170302
GHOST-3                 
1 56958U 23084AC  26197.37465383  .00010496  00000+0  19692-3 0  9993
2 56958  97.6249 347.5377 0006863 180.9226 179.2013 15.48814226172531
AFR-1                   
1 56964U 23084AJ  26197.62296485  .00002491  00000+0  91794-4 0  9993
2 56964  97.6312 335.0330 0009353 229.2648 130.7779 15.28783702171725
METEOR-M2 3             
1 57166U 23091A   26197.60860822 -.00000018  00000+0  10999-4 0  9998
2 57166  98.6067 251.9824 0005139  87.1126 273.0642 14.24049000158706
UMKA 1 (RS40S)          
1 57172U 23091G   26197.56732087  .00003044  00000+0  13969-3 0  9991
2 57172  97.5034 256.1549 0012912  24.9873 335.1985 15.21129782168470
2023-091H               
1 57173U 23091H   26197.56834581  .00006103  00000+0  21764-3 0  9995
2 57173  97.5031 261.0080 0009432  20.5452 339.6165 15.29233115168799
2023-091J               
1 57174U 23091J   26197.59883072  .00001875  00000+0  10634-3 0  9993
2 57174  97.5041 250.2765 0014307  51.7181 308.5335 15.14117003168080
CUBEBEL 2 (EU11S)       
1 57175U 23091K   26197.62374391  .00006724  00000+0  23509-3 0  9990
2 57175  97.5033 261.1156 0009387  21.6758 338.4877 15.29843884168807
SITRO-AIS 5 (KATYS)     
1 57176U 23091L   26197.57014588  .00006317  00000+0  21936-3 0  9994
2 57176  97.5043 261.7597 0010500   7.6028 352.5369 15.30082510168836
ZORKIY-2M 1             
1 57177U 23091M   26197.61739379  .00003242  00000+0  14797-3 0  9993
2 57177  97.5073 256.4937 0013264  21.5474 338.6317 15.21259972168475
CUBESX-HSE 3 (RS42S)    
1 57178U 23091N   26197.57416090  .00007156  00000+0  23459-3 0  9994
2 57178  97.5075 263.5449 0009514 356.9824   3.1359 15.31904666168920
MONITOR-3 (RS58S)       
1 57180U 23091Q   26197.59940538  .00005803  00000+0  21241-3 0  9992
2 57180  97.5066 261.2702 0010839   4.8327 355.3015 15.28388869168781
MONITOR-4 (RS57S)       
1 57182U 23091S   26197.57682247  .00005707  00000+0  20838-3 0  9996
2 57182  97.5060 261.2203 0010835   5.1212 355.0136 15.28475205168788
MONITOR-2 (RS39S)       
1 57184U 23091U   26197.62606073  .00002444  00000+0  11942-3 0  9998
2 57184  97.5054 255.7207 0011238  19.2596 340.9061 15.19161694168429
SVYATOBOR 1 (RS60S)     
1 57187U 23091X   26197.61602801  .00004650  00000+0  17779-3 0  9990
2 57187  97.5074 261.6029 0008607 359.5025   0.6203 15.27076885168801
HORS 1                  
1 57188U 23091Y   26197.59939825  .00004923  00000+0  18738-3 0  9996
2 57188  97.5051 261.3448 0008054 359.9774   0.1463 15.27196519168800
VIZARD-METEO (RS38S)    
1 57189U 23091Z   26197.58437784  .00009366  00000+0  26178-3 0  9996
2 57189  97.5077 267.6755 0005536 333.6471  26.4490 15.36900981169206
